[{"OBJECT_NAME":"STARLINK-5760","OBJECT_ID":"2023-020Y","EPOCH":"2026-03-09T22:00:01.999584","MEAN_MOTION":15.12850663,"ECCENTRICITY":8.72e-5,"INCLINATION":42.9998,"RA_OF_ASC_NODE":2.8445,"ARG_OF_PERICENTER":255.2012,"MEAN_ANOMALY":334.0246,"EPHEMERIS_TYPE":0,"CLASSIFICATION_TYPE":"U","NORAD_CAT_ID":55591,"ELEMENT_SET_NO":999,"REV_AT_EPOCH":537,"BSTAR":0.0015897393,"MEAN_MOTION_DOT":0.00028334,"MEAN_MOTION_DDOT":0},{"OBJECT_NAME":"OBJECT B","OBJECT_ID":"2024-094B","EPOCH":"2026-03-09T23:16:02.635680","MEAN_MOTION":15.16281585,"ECCENTRICITY":0.00049641,"INCLINATION":97.3969,"RA_OF_ASC_NODE":142.4807,"ARG_OF_PERICENTER":78.7476,"MEAN_ANOMALY":281.4315,"EPHEMERIS_TYPE":0,"CLASSIFICATION_TYPE":"U","NORAD_CAT_ID":59806,"ELEMENT_SET_NO":999,"REV_AT_EPOCH":10012,"BSTAR":0.00045081306,"MEAN_MOTION_DOT":8.669e-5,"MEAN_MOTION_DDOT":0}]
